ONEWEB-0683             
1 56719U 23068K   24293.18272777  .00000103  00000+0  23901-3 0  9999
2 56719  87.9127  19.7933 0001589  94.8152 265.3160 13.15546517 70444
ONEWEB-0684             
1 56720U 23068L   24293.19065438  .00000020  00000+0  18332-4 0  9997
2 56720  87.9098  19.8695 0003226  88.5471 271.6029 13.15550426 70272
ONEWEB-0694             
1 56722U 23068N   24293.20354146 -.00000072  00000+0 -22071-3 0  9991
2 56722  87.9139 349.4491 0001480  94.8573 265.2727 13.16592437 72735
ONEWEB-0696             
1 56723U 23068P   24292.53941958  .00000152  00000+0  37051-3 0  9991
2 56723  87.9128  19.9726 0002042 103.5927 256.5431 13.15547072 69601
ONEWEB-0703             
1 56724U 23068Q   24293.15737854  .00000224  00000+0  55993-3 0  9994
2 56724  87.9128  19.8702 0002948 114.4738 245.6700 13.15549964 70276
ONEWEB-0721             
1 56725U 23068R   24293.25001157 -.01224026  00000+0 -20078+0 0  9999
2 56725  86.6705 284.1438 0009645 171.0185 147.2290 14.74227713 77621
